{"type": "FeatureCollection", "features": [ {"type": "Feature", "properties": {"norad_id": 51444, "name": "CSG-2", "group": "resource", "lat": 27.813228544785822, "lon": 162.3644382297867, "alt_km": 620.7440429977096, "timestamp": "2025-12-11T05:00:25.968872+00:00", "meta": {"OBJECT_NAME": "CSG-2", "OBJECT_ID": "2022-008A", "EPOCH": "2025-12-10T22:23:59.477856", "MEAN_MOTION": 14.82161478, "ECCENTRICITY": 0.00015149, "INCLINATION": 97.8805, "RA_OF_ASC_NODE": 166.2836, "ARG_OF_PERICENTER": 83.6917, "MEAN_ANOMALY": 276.4469, "EPHEMERIS_TYPE": 0, "CLASSIFICATION_TYPE": "U", "NORAD_CAT_ID": 51444, "ELEMENT_SET_NO": 999, "REV_AT_EPOCH": 20870, "BSTAR": 0.00015063518, "MEAN_MOTION_DOT": 1.147e-05, "MEAN_MOTION_DDOT": 0}, "tle": {"line1": "1 51444U 22008A   25344.93332729  .00001147  00000+0  15064-3 0  9997", "line2": "2 51444  97.8805 166.2836 0001514  83.6917 276.4469 14.82161478208701"}}, "geometry": {"type": "Point", "coordinates": [162.3644382297867, 27.813228544785822]}}, {"type": "Feature", "properties": {"norad_id": 52912, "name": "GAOFEN-12 03", "group": "resource", "lat": -40.82149553608494, "lon": -120.56418734103701, "alt_km": 637.55153523216, "timestamp": "2025-12-11T05:00:25.968882+00:00", "meta": {"OBJECT_NAME": "GAOFEN-12 03", "OBJECT_ID": "2022-069A", "EPOCH": "2025-12-10T22:42:04.654080", "MEAN_MOTION": 14.79602911, "ECCENTRICITY": 0.00022699, "INCLINATION": 97.8479, "RA_OF_ASC_NODE": 232.3364, "ARG_OF_PERICENTER": 64.3368, "MEAN_ANOMALY": 295.8078, "EPHEMERIS_TYPE": 0, "CLASSIFICATION_TYPE": "U", "NORAD_CAT_ID": 52912, "ELEMENT_SET_NO": 999, "REV_AT_EPOCH": 18677, "BSTAR": 0.00026386254, "MEAN_MOTION_DOT": 1.927e-05, "MEAN_MOTION_DDOT": 0}, "tle": {"line1": "1 52912U 22069A   25344.94588720  .00001927  00000+0  26386-3 0  9995", "line2": "2 52912  97.8479 232.3364 0002269  64.3368 295.8078 14.79602911186775"}}, "geometry": {"type": "Point", "coordinates": [-120.56418734103701, -40.82149553608494]}}, {"type": "Feature", "properties": {"norad_id": 54754, "name": "SWOT", "group": "resource", "lat": 10.621768846281652, "lon": -68.58085294768084, "alt_km": 894.5233633064163, "timestamp": "2025-12-11T05:00:25.968892+00:00", "meta": {"OBJECT_NAME": "SWOT", "OBJECT_ID": "2022-173A", "EPOCH": "2025-12-10T22:05:44.960928", "MEAN_MOTION": 14.00174257, "ECCENTRICITY": 3.32e-05, "INCLINATION": 77.6105, "RA_OF_ASC_NODE": 289.4452, "ARG_OF_PERICENTER": 117.6172, "MEAN_ANOMALY": 242.5013, "EPHEMERIS_TYPE": 0, "CLASSIFICATION_TYPE": "U", "NORAD_CAT_ID": 54754, "ELEMENT_SET_NO": 999, "REV_AT_EPOCH": 15280, "BSTAR": 3.9544214e-05, "MEAN_MOTION_DOT": 5.6e-07, "MEAN_MOTION_DDOT": 0}, "tle": {"line1": "1 54754U 22173A   25344.92065927  .00000056  00000+0  39544-4 0  9997", "line2": "2 54754  77.6105 289.4452 0000332 117.6172 242.5013 14.00174257152804"}}, "geometry": {"type": "Point", "coordinates": [-68.58085294768084, 10.621768846281652]}}, {"type": "Feature", "properties": {"norad_id": 57654, "name": "GAOFEN-12 04", "group": "resource", "lat": 51.310233412802276, "lon": 90.9887534353774, "alt_km": 625.0220351290745, "timestamp": "2025-12-11T05:00:25.968902+00:00", "meta": {"OBJECT_NAME": "GAOFEN-12 04", "OBJECT_ID": "2023-123A", "EPOCH": "2025-12-10T23:33:44.362944", "MEAN_MOTION": 14.79691839, "ECCENTRICITY": 0.000135, "INCLINATION": 97.9117, "RA_OF_ASC_NODE": 260.7657, "ARG_OF_PERICENTER": 73.589, "MEAN_ANOMALY": 286.547, "EPHEMERIS_TYPE": 0, "CLASSIFICATION_TYPE": "U", "NORAD_CAT_ID": 57654, "ELEMENT_SET_NO": 999, "REV_AT_EPOCH": 12479, "BSTAR": 0.00030900475, "MEAN_MOTION_DOT": 2.269e-05, "MEAN_MOTION_DDOT": 0}, "tle": {"line1": "1 57654U 23123A   25344.98176346  .00002269  00000+0  30900-3 0  9993", "line2": "2 57654  97.9117 260.7657 0001350  73.5890 286.5470 14.79691839124799"}}, "geometry": {"type": "Point", "coordinates": [90.9887534353774, 51.310233412802276]}}, {"type": "Feature", "properties": {"norad_id": 59065, "name": "PARS 1", "group": "resource", "lat": -7.670095006245096, "lon": 135.09758048078777, "alt_km": 450.53124157494767, "timestamp": "2025-12-11T05:00:25.968911+00:00", "meta": {"OBJECT_NAME": "PARS 1", "OBJECT_ID": "2024-039Q", "EPOCH": "2025-12-10T23:31:16.114368", "MEAN_MOTION": 15.40909486, "ECCENTRICITY": 0.00126236, "INCLINATION": 97.4637, "RA_OF_ASC_NODE": 315.8758, "ARG_OF_PERICENTER": 77.474, "MEAN_ANOMALY": 282.7918, "EPHEMERIS_TYPE": 0, "CLASSIFICATION_TYPE": "U", "NORAD_CAT_ID": 59065, "ELEMENT_SET_NO": 999, "REV_AT_EPOCH": 9961, "BSTAR": 0.00040264365, "MEAN_MOTION_DOT": 0.00016526, "MEAN_MOTION_DDOT": 0}, "tle": {"line1": "1 59065U 24039Q   25344.98004762  .00016526  00000+0  40264-3 0  9995", "line2": "2 59065  97.4637 315.8758 0012623  77.4740 282.7918 15.40909486 99611"}}, "geometry": {"type": "Point", "coordinates": [135.09758048078777, -7.670095006245096]}}, {"type": "Feature", "properties": {"norad_id": 59371, "name": "RESURS-P 4", "group": "resource", "lat": 18.133110909845577, "lon": -70.82092088429849, "alt_km": 469.1765586533011, "timestamp": "2025-12-11T05:00:25.968921+00:00", "meta": {"OBJECT_NAME": "RESURS-P 4", "OBJECT_ID": "2024-061A", "EPOCH": "2025-12-10T22:39:27.152928", "MEAN_MOTION": 15.32062575, "ECCENTRICITY": 0.00016612, "INCLINATION": 97.2543, "RA_OF_ASC_NODE": 291.3108, "ARG_OF_PERICENTER": 53.239, "MEAN_ANOMALY": 306.9004, "EPHEMERIS_TYPE": 0, "CLASSIFICATION_TYPE": "U", "NORAD_CAT_ID": 59371, "ELEMENT_SET_NO": 999, "REV_AT_EPOCH": 9493, "BSTAR": 0.00020049507, "MEAN_MOTION_DOT": 6.13e-05, "MEAN_MOTION_DDOT": 0}, "tle": {"line1": "1 59371U 24061A   25344.94406427  .00006130  00000+0  20050-3 0  9991", "line2": "2 59371  97.2543 291.3108 0001661  53.2390 306.9004 15.32062575 94930"}}, "geometry": {"type": "Point", "coordinates": [-70.82092088429849, 18.133110909845577]}}, {"type": "Feature", "properties": {"norad_id": 59625, "name": "LEGION 1", "group": "resource", "lat": -30.521122223833967, "lon": 64.3269373066674, "alt_km": 519.8083376262275, "timestamp": "2025-12-11T05:00:25.968931+00:00", "meta": {"OBJECT_NAME": "LEGION 1", "OBJECT_ID": "2024-081A", "EPOCH": "2025-12-10T22:48:29.282688", "MEAN_MOTION": 15.16450794, "ECCENTRICITY": 0.00040951, "INCLINATION": 97.5211, "RA_OF_ASC_NODE": 59.6036, "ARG_OF_PERICENTER": 326.1048, "MEAN_ANOMALY": 33.9923, "EPHEMERIS_TYPE": 0, "CLASSIFICATION_TYPE": "U", "NORAD_CAT_ID": 59625, "ELEMENT_SET_NO": 999, "REV_AT_EPOCH": 8900, "BSTAR": 0.00040171663, "MEAN_MOTION_DOT": 7.751e-05, "MEAN_MOTION_DDOT": 0}, "tle": {"line1": "1 59625U 24081A   25344.95033892  .00007751  00000+0  40172-3 0  9995", "line2": "2 59625  97.5211  59.6036 0004095 326.1048  33.9923 15.16450794 89003"}}, "geometry": {"type": "Point", "coordinates": [64.3269373066674, -30.521122223833967]}}, {"type": "Feature", "properties": {"norad_id": 59626, "name": "LEGION 2", "group": "resource", "lat": 30.64381644987674, "lon": -115.56379805059817, "alt_km": 518.4780343342545, "timestamp": "2025-12-11T05:00:25.968941+00:00", "meta": {"OBJECT_NAME": "LEGION 2", "OBJECT_ID": "2024-081B", "EPOCH": "2025-12-10T22:01:03.169056", "MEAN_MOTION": 15.1646094, "ECCENTRICITY": 0.00057845, "INCLINATION": 97.5212, "RA_OF_ASC_NODE": 59.6582, "ARG_OF_PERICENTER": 301.4083, "MEAN_ANOMALY": 58.6584, "EPHEMERIS_TYPE": 0, "CLASSIFICATION_TYPE": "U", "NORAD_CAT_ID": 59626, "ELEMENT_SET_NO": 999, "REV_AT_EPOCH": 8900, "BSTAR": 0.00037188689, "MEAN_MOTION_DOT": 7.174e-05, "MEAN_MOTION_DDOT": 0}, "tle": {"line1": "1 59626U 24081B   25344.91739779  .00007174  00000+0  37189-3 0  9992", "line2": "2 59626  97.5212  59.6582 0005784 301.4083  58.6584 15.16460940 89003"}}, "geometry": {"type": "Point", "coordinates": [-115.56379805059817, 30.64381644987674]}}, {"type": "Feature", "properties": {"norad_id": 60182, "name": "ALOS-4 (DAICHI-4)", "group": "resource", "lat": 9.594517193408771, "lon": 78.72863750416381, "alt_km": 632.656689202764, "timestamp": "2025-12-11T05:00:25.968951+00:00", "meta": {"OBJECT_NAME": "ALOS-4 (DAICHI-4)", "OBJECT_ID": "2024-123A", "EPOCH": "2025-12-10T20:50:51.533664", "MEAN_MOTION": 14.79478132, "ECCENTRICITY": 0.00014193, "INCLINATION": 97.9225, "RA_OF_ASC_NODE": 79.7424, "ARG_OF_PERICENTER": 101.2045, "MEAN_ANOMALY": 258.9326, "EPHEMERIS_TYPE": 0, "CLASSIFICATION_TYPE": "U", "NORAD_CAT_ID": 60182, "ELEMENT_SET_NO": 999, "REV_AT_EPOCH": 7803, "BSTAR": 0.00039567352, "MEAN_MOTION_DOT": 2.905e-05, "MEAN_MOTION_DDOT": 0}, "tle": {"line1": "1 60182U 24123A   25344.86865201  .00002905  00000+0  39567-3 0  9991", "line2": "2 60182  97.9225  79.7424 0001419 101.2045 258.9326 14.79478132 78033"}}, "geometry": {"type": "Point", "coordinates": [78.72863750416381, 9.594517193408771]}}, {"type": "Feature", "properties": {"norad_id": 60452, "name": "LEGION 3", "group": "resource", "lat": -5.256717827419758, "lon": 143.62267421471162, "alt_km": 509.29864356604685, "timestamp": "2025-12-11T05:00:25.968961+00:00", "meta": {"OBJECT_NAME": "LEGION 3", "OBJECT_ID": "2024-146A", "EPOCH": "2025-12-10T23:26:20.389632", "MEAN_MOTION": 15.15730612, "ECCENTRICITY": 0.0014682, "INCLINATION": 45.0021, "RA_OF_ASC_NODE": 319.5847, "ARG_OF_PERICENTER": 189.1963, "MEAN_ANOMALY": 170.8649, "EPHEMERIS_TYPE": 0, "CLASSIFICATION_TYPE": "U", "NORAD_CAT_ID": 60452, "ELEMENT_SET_NO": 999, "REV_AT_EPOCH": 7346, "BSTAR": 0.00040587032, "MEAN_MOTION_DOT": 7.63e-05, "MEAN_MOTION_DDOT": 0}, "tle": {"line1": "1 60452U 24146A   25344.97662488  .00007630  00000+0  40587-3 0  9994", "line2": "2 60452  45.0021 319.5847 0014682 189.1963 170.8649 15.15730612 73462"}}, "geometry": {"type": "Point", "coordinates": [143.62267421471162, -5.256717827419758]}}]}